LEMUR-2-ANDIS           
1 42838U 17042P   26068.55941107  .00023598  00000+0  79875-3 0  9998
2 42838  97.3659 249.7950 0009101   4.3248 355.8070 15.30557934473198
STARLINK-2705           
1 48672U 21044AL  26068.33834318 -.00004992  00000+0 -15241-3 0  9994
2 48672  53.1598 105.8091 0001581  77.9359 282.1819 15.31035302263903
